TEVEL2-9                
1 63237U 25052AD  26068.70229538  .00018694  00000+0  67240-3 0  9992
2 63237  97.4057 324.3929 0007990 124.2475 235.9522 15.28633834 54816
STARLINK-34137          
1 63953U 25099B   26068.34918514  .00026448  00000+0  96675-3 0  9997
2 63953  43.0034 178.2024 0000853 278.3603  81.7152 15.27594804 47281
